$$SOE
2460721.500000000, A.D. 2025-Feb-15 00:00:00.0000, 3.510688488490555E+08, -1.848615073352832E+08, -7.134481084106457E+07,
2460728.500000000, A.D. 2025-Feb-22 00:00:00.0000, 3.559077716911429E+08, -1.743825410142537E+08, -7.199104830993813E+07,
2460735.500000000, A.D. 2025-Mar-01 00:00:00.0000, 3.604823767461149E+08, -1.637741172901352E+08, -7.258381854768565E+07,
2460742.500000000, A.D. 2025-Mar-08 00:00:00.0000, 3.647887133335501E+08, -1.530438608511430E+08, -7.312256960088764E+07,
2460749.500000000, A.D. 2025-Mar-15 00:00:00.0000, 3.688230829042178E+08, -1.421995455868627E+08, -7.360680102597117E+07,
2460756.500000000, A.D. 2025-Mar-22 00:00:00.0000, 3.725820439627720E+08, -1.312490834886313E+08, -7.403606472550291E+07,
2460763.500000000, A.D. 2025-Mar-29 00:00:00.0000, 3.760624178061923E+08, -1.202005153775772E+08, -7.440996597734556E+07,
2460770.500000000, A.D. 2025-Apr-05 00:00:00.0000, 3.792612953720223E+08, -1.090620003568725E+08, -7.472816442510673E+07,
2460777.500000000, A.D. 2025-Apr-12 00:00:00.0000, 3.821760432439984E+08, -9.784180392273644E+07, -7.499037484096164E+07,
2460784.500000000, A.D. 2025-Apr-19 00:00:00.0000, 3.848043086042280E+08, -8.654828565687786E+07, -7.519636771261492E+07,
2460791.500000000, A.D. 2025-Apr-26 00:00:00.0000, 3.871440233827084E+08, -7.518988674653850E+07, -7.534596969336648E+07,
2460798.500000000, A.D. 2025-May-03 00:00:00.0000, 3.891934077003425E+08, -6.377511735755738E+07, -7.543906392221811E+07,
2460805.500000000, A.D. 2025-May-10 00:00:00.0000, 3.909509726202346E+08, -5.231254389772327E+07, -7.547559021472651E+07,
2460812.500000000, A.D. 2025-May-17 00:00:00.0000, 3.924155222340093E+08, -4.081077625868378E+07, -7.545554513086782E+07,
2460819.500000000, A.D. 2025-May-24 00:00:00.0000, 3.935861552501842E+08, -2.927845513932747E+07, -7.537898194044362E+07,
2460826.500000000, A.D. 2025-May-31 00:00:00.0000, 3.944622664974601E+08, -1.772423918788052E+07, -7.524601049920931E+07,
2460833.500000000, A.D. 2025-Jun-07 00:00:00.0000, 3.950435479415914E+08, -6.156790803692337E+06, -7.505679690140282E+07,
2460840.500000000, A.D. 2025-Jun-14 00:00:00.0000, 3.953299868597478E+08, 5.415238688351762E+06, -7.481156274932933E+07,
2460847.500000000, A.D. 2025-Jun-21 00:00:00.0000, 3.953218624005296E+08, 1.698322117016634E+07, -7.451058442285813E+07,
2460854.500000000, A.D. 2025-Jun-28 00:00:00.0000, 3.950197436678693E+08, 2.853856288688976E+07, -7.415419249468207E+07,
2460861.500000000, A.D. 2025-Jul-05 00:00:00.0000, 3.944244878264337E+08, 4.007271673958214E+07, -7.374277097971512E+07,
2460868.500000000, A.D. 2025-Jul-12 00:00:00.0000, 3.935372370564843E+08, 5.157719486511201E+07, -7.327675637978147E+07,
2460875.500000000, A.D. 2025-Jul-19 00:00:00.0000, 3.923594145684155E+08, 6.304358088547061E+07, -7.275663659260429E+07,
2460882.500000000, A.D. 2025-Jul-26 00:00:00.0000, 3.908927199085829E+08, 7.446354173019333E+07, -7.218294971346766E+07,
2460889.500000000, A.D. 2025-Aug-02 00:00:00.0000, 3.891391236458202E+08, 8.582883901824927E+07, -7.155628273866931E+07,
2460896.500000000, A.D. 2025-Aug-09 00:00:00.0000, 3.871008614904464E+08, 9.713133995409383E+07, -7.087727018015753E+07,
2460903.500000000, A.D. 2025-Aug-16 00:00:00.0000, 3.847804279564922E+08, 1.083630276469865E+08, -7.014659261110207E+07,
2460910.500000000, A.D. 2025-Aug-23 00:00:00.0000, 3.821805698973049E+08, 1.195160108430967E+08, -6.936497517627548E+07,
2460917.500000000, A.D. 2025-Aug-30 00:00:00.0000, 3.793042802803596E+08, 1.305825337577398E+08, -6.853318604688649E+07,
2460924.500000000, A.D. 2025-Sep-06 00:00:00.0000, 3.761547908182063E+08, 1.415549869858877E+08, -6.765203461487503E+07,
2460931.500000000, A.D. 2025-Sep-13 00:00:00.0000, 3.727355618247691E+08, 1.524259169915659E+08, -6.672236948423128E+07,
2460938.500000000, A.D. 2025-Sep-20 00:00:00.0000, 3.690502726117548E+08, 1.631880325146488E+08, -6.574507670220182E+07,
2460945.500000000, A.D. 2025-Sep-27 00:00:00.0000, 3.651028135201032E+08, 1.738342109919439E+08, -6.472107807991370E+07,
2460952.500000000, A.D. 2025-Oct-04 00:00:00.0000, 3.608972776063183E+08, 1.843575055227244E+08, -6.365132938002436E+07,
2460959.500000000, A.D. 2025-Oct-11 00:00:00.0000, 3.564379516482635E+08, 1.947511514299598E+08, -6.253681842124913E+07,
2460966.500000000, A.D. 2025-Oct-18 00:00:00.0000, 3.517293067920077E+08, 2.050085721395381E+08, -6.137856315516074E+07,
2460973.500000000, A.D. 2025-Oct-25 00:00:00.0000, 3.467759890159971E+08, 2.151233843879800E+08, -6.017760973384506E+07,
2460980.500000000, A.D. 2025-Nov-01 00:00:00.0000, 3.415828094874194E+08, 2.250894027767518E+08, -5.893503057726309E+07,
2460987.500000000, A.D. 2025-Nov-08 00:00:00.0000, 3.361547348796504E+08, 2.349006436477467E+08, -5.765192245253198E+07,
2460994.500000000, A.D. 2025-Nov-15 00:00:00.0000, 3.304968778324581E+08, 2.445513282306737E+08, -5.632940459011215E+07,
2461001.500000000, A.D. 2025-Nov-22 00:00:00.0000, 3.246144879914484E+08, 2.540358852939813E+08, -5.496861686267324E+07,
2461008.500000000, A.D. 2025-Nov-29 00:00:00.0000, 3.185129435053849E+08, 2.633489544458619E+08, -5.357071792613494E+07,
2461015.500000000, A.D. 2025-Dec-06 00:00:00.0000, 3.121977407314064E+08, 2.724853899632188E+08, -5.213688313024742E+07,
2461022.500000000, A.D. 2025-Dec-13 00:00:00.0000, 3.056744826112493E+08, 2.814402617980785E+08, -5.066830251962023E+07,
2461029.500000000, A.D. 2025-Dec-20 00:00:00.0000, 2.989488692425600E+08, 2.902088548026039E+08, -4.916617916777152E+07,
2461036.500000000, A.D. 2025-Dec-27 00:00:00.0000, 2.920266895958868E+08, 2.987866687801274E+08, -4.763172753791264E+07,
2461043.500000000, A.D. 2026-Jan-03 00:00:00.0000, 2.849138129393266E+08, 3.071694187658625E+08, -4.606617179022522E+07,
2461050.500000000, A.D. 2026-Jan-10 00:00:00.0000, 2.776161801008698E+08, 3.153530348796186E+08, -4.447074410434216E+07,
2461057.500000000, A.D. 2026-Jan-17 00:00:00.0000, 2.701397948195912E+08, 3.233336616809940E+08, -4.284668304867716E+07,
2461064.500000000, A.D. 2026-Jan-24 00:00:00.0000, 2.624907152802008E+08, 3.311076570723712E+08, -4.119523200433132E+07,
2461071.500000000, A.D. 2026-Jan-31 00:00:00.0000, 2.546750458689880E+08, 3.386715907654735E+08, -3.951763764839886E+07,
2461078.500000000, A.D. 2026-Feb-07 00:00:00.0000, 2.466989292253664E+08, 3.460222422777857E+08, -3.781514850872155E+07,
2461085.500000000, A.D. 2026-Feb-14 00:00:00.0000, 2.385685388531769E+08, 3.531565984677559E+08, -3.608901361602329E+07,
2461092.500000000, A.D. 2026-Feb-21 00:00:00.0000, 2.302900726895487E+08, 3.600718512101423E+08, -3.434048124314682E+07,
2461099.500000000, A.D. 2026-Feb-28 00:00:00.0000, 2.218697465550244E+08, 3.667653963868160E+08, -3.257079753849888E+07,
2461106.500000000, A.D. 2026-Mar-07 00:00:00.0000, 2.133137854300161E+08, 3.732348322636133E+08, -3.078120502413605E+07,
2461113.500000000, A.D. 2026-Mar-14 00:00:00.0000, 2.046284153371165E+08, 3.794779549460606E+08, -2.897294140400787E+07,
2461120.500000000, A.D. 2026-Mar-21 00:00:00.0000, 1.958198576189116E+08, 3.854927538354922E+08, -2.714723860969715E+07,
2461127.500000000, A.D. 2026-Mar-28 00:00:00.0000, 1.868943236049365E+08, 3.912774081325839E+08, -2.530532181487222E+07,
2461134.500000000, A.D. 2026-Apr-04 00:00:00.0000, 1.778580090640980E+08, 3.968302834403499E+08, -2.344840844104078E+07,
2461141.500000000, A.D. 2026-Apr-11 00:00:00.0000, 1.687170887149217E+08, 4.021499281238668E+08, -2.157770720802850E+07,
2461148.500000000, A.D. 2026-Apr-18 00:00:00.0000, 1.594777109493885E+08, 4.072350694370044E+08, -1.969441724307622E+07,
2461155.500000000, A.D. 2026-Apr-25 00:00:00.0000, 1.501459928113678E+08, 4.120846094488052E+08, -1.779972725029254E+07,
2461162.500000000, A.D. 2026-May-02 00:00:00.0000, 1.407280152556179E+08, 4.166976207589912E+08, -1.589481474451768E+07,
2461169.500000000, A.D. 2026-May-09 00:00:00.0000, 1.312298188080461E+08, 4.210733419554995E+08, -1.398084536527330E+07,
2461176.500000000, A.D. 2026-May-16 00:00:00.0000, 1.216574000016988E+08, 4.252111729703869E+08, -1.205897229289687E+07,
2461183.500000000, A.D. 2026-May-23 00:00:00.0000, 1.120167086369633E+08, 4.291106713728498E+08, -1.013033568674663E+07,
2461190.500000000, A.D. 2026-May-30 00:00:00.0000, 1.023136437836501E+08, 4.327715499312442E+08, -8.196061927232653E+06,
2461197.500000000, A.D. 2026-Jun-06 00:00:00.0000, 9.255404819958045E+07, 4.361936721796240E+08, -6.257262898078263E+06,
2461204.500000000, A.D. 2026-Jun-13 00:00:00.0000, 8.274370482236026E+07, 4.393770462013135E+08, -4.315035627040446E+06,
2461211.500000000, A.D. 2026-Jun-20 00:00:00.0000, 7.288833482716954E+07, 4.423218195687242E+08, -2.370461998745769E+06,
2461218.500000000, A.D. 2026-Jun-27 00:00:00.0000, 6.299359554480653E+07, 4.450282751084358E+08, -4.246084100994170E+05,
2461225.500000000, A.D. 2026-Jul-04 00:00:00.0000, 5.306507823104230E+07, 4.474968267252360E+08, 1.521474570051789E+06,
2461232.500000000, A.D. 2026-Jul-11 00:00:00.0000, 4.310830593243330E+07, 4.497280151619175E+08, 3.466752504505903E+06,
2461239.500000000, A.D. 2026-Jul-18 00:00:00.0000, 3.312873153267962E+07, 4.517225037287068E+08, 5.410207349687815E+06,
2461246.500000000, A.D. 2026-Jul-25 00:00:00.0000, 2.313173599536860E+07, 4.534810740124180E+08, 7.350837675576210E+06,
2461253.500000000, A.D. 2026-Aug-01 00:00:00.0000, 1.312262684256325E+07, 4.550046215238217E+08, 9.287658836827397E+06,
2461260.500000000, A.D. 2026-Aug-08 00:00:00.0000, 3.106637075362307E+06, 4.562941512533228E+08, 1.121970307409057E+07,
2461267.500000000, A.D. 2026-Aug-15 00:00:00.0000, -6.911075057421548E+06, 4.573507735911820E+08, 1.314601954591835E+07,
2461274.500000000, A.D. 2026-Aug-22 00:00:00.0000, -1.692542621175603E+07, 4.581757018397001E+08, 1.506567446249872E+07,
2461281.500000000, A.D. 2026-Aug-29 00:00:00.0000, -2.693141031799337E+07, 4.587702499482544E+08, 1.697775142051265E+07,
2461288.500000000, A.D. 2026-Sep-05 00:00:00.0000, -3.692410104288259E+07, 4.591358276036667E+08, 1.888135151076558E+07,
$$EOE